{
  "type": "FeatureCollection",
  "features": [
    {
      "type": "Feature",
      "properties": {
        "norad_id": 66842,
        "name": "STARLINK-35769",
        "group": "last-30-days",
        "lat": 2.4136213798432014,
        "lon": 160.79842280394112,
        "alt_km": 410.84423097893796,
        "timestamp": "2025-12-26T18:39:30.997979+00:00",
        "meta_object_name": "STARLINK-35769",
        "meta_object_id": "2025-280X",
        "meta_epoch": "2025-12-25T16:21:43.530048",
        "meta_mean_motion": 15.52546492,
        "meta_eccentricity": 0.00031597,
        "meta_inclination": 70.0007,
        "meta_ra_of_asc_node": 162.9191,
        "meta_arg_of_pericenter": 274.6719,
        "meta_mean_anomaly": 85.4107,
        "meta_ephemeris_type": 0,
        "meta_classification_type": "U",
        "meta_norad_cat_id": 66842,
        "meta_element_set_no": 999,
        "meta_rev_at_epoch": 494,
        "meta_bstar": 0.0015378743,
        "meta_mean_motion_dot": 0.00095683,
        "meta_mean_motion_ddot": 0,
        "tle_line1": "1 66842U 25280X   25359.68175382  .00095683  00000+0  15379-2 0  9994",
        "tle_line2": "2 66842  70.0007 162.9191 0003159 274.6719  85.4107 15.52546492  4940"
      },
      "geometry": {
        "type": "Point",
        "coordinates": [
          160.79842280394112,
          2.4136213798432014
        ]
      }
    },
    {
      "type": "Feature",
      "properties": {
        "norad_id": 66843,
        "name": "STARLINK-35997",
        "group": "last-30-days",
        "lat": 5.583316619400893,
        "lon": 161.95290321460598,
        "alt_km": 410.69400307613523,
        "timestamp": "2025-12-26T18:39:30.997989+00:00",
        "meta_object_name": "STARLINK-35997",
        "meta_object_id": "2025-280Y",
        "meta_epoch": "2025-12-26T13:59:39.310368",
        "meta_mean_motion": 15.52554863,
        "meta_eccentricity": 0.00034117,
        "meta_inclination": 70.0008,
        "meta_ra_of_asc_node": 160.4446,
        "meta_arg_of_pericenter": 280.8322,
        "meta_mean_anomaly": 79.2481,
        "meta_ephemeris_type": 0,
        "meta_classification_type": "U",
        "meta_norad_cat_id": 66843,
        "meta_element_set_no": 999,
        "meta_rev_at_epoch": 508,
        "meta_bstar": 0.0017221866,
        "meta_mean_motion_dot": 0.00107364,
        "meta_mean_motion_ddot": 0,
        "tle_line1": "1 66843U 25280Y   25360.58309387  .00107364  00000+0  17222-2 0  9999",
        "tle_line2": "2 66843  70.0008 160.4446 0003411 280.8322  79.2481 15.52554863  5081"
      },
      "geometry": {
        "type": "Point",
        "coordinates": [
          161.95290321460598,
          5.583316619400893
        ]
      }
    },
    {
      "type": "Feature",
      "properties": {
        "norad_id": 66844,
        "name": "STARLINK-36073",
        "group": "last-30-days",
        "lat": 3.7504296849877097,
        "lon": 161.28248712275627,
        "alt_km": 411.3939614740402,
        "timestamp": "2025-12-26T18:39:30.998002+00:00",
        "meta_object_name": "STARLINK-36073",
        "meta_object_id": "2025-280Z",
        "meta_epoch": "2025-12-26T08:00:01.000224",
        "meta_mean_motion": 15.52420843,
        "meta_eccentricity": 0.00034234,
        "meta_inclination": 70.0004,
        "meta_ra_of_asc_node": 161.1302,
        "meta_arg_of_pericenter": 270.9014,
        "meta_mean_anomaly": 131.8672,
        "meta_ephemeris_type": 0,
        "meta_classification_type": "U",
        "meta_norad_cat_id": 66844,
        "meta_element_set_no": 999,
        "meta_rev_at_epoch": 508,
        "meta_bstar": 0.0025125056,
        "meta_mean_motion_dot": 0.00156941,
        "meta_mean_motion_ddot": 0,
        "tle_line1": "1 66844U 25280Z   25360.33334491  .00156941  00000+0  25125-2 0  9993",
        "tle_line2": "2 66844  70.0004 161.1302 0003423 270.9014 131.8672 15.52420843  5085"
      },
      "geometry": {
        "type": "Point",
        "coordinates": [
          161.28248712275627,
          3.7504296849877097
        ]
      }
    },
    {
      "type": "Feature",
      "properties": {
        "norad_id": 66845,
        "name": "STARLINK-36068",
        "group": "last-30-days",
        "lat": 11.01462238311054,
        "lon": 163.97116729054102,
        "alt_km": 410.4214278246218,
        "timestamp": "2025-12-26T18:39:30.998014+00:00",
        "meta_object_name": "STARLINK-36068",
        "meta_object_id": "2025-280AA",
        "meta_epoch": "2025-12-26T13:58:09.972768",
        "meta_mean_motion": 15.52570948,
        "meta_eccentricity": 0.000371,
        "meta_inclination": 70.001,
        "meta_ra_of_asc_node": 160.4409,
        "meta_arg_of_pericenter": 273.8275,
        "meta_mean_anomaly": 86.2488,
        "meta_ephemeris_type": 0,
        "meta_classification_type": "U",
        "meta_norad_cat_id": 66845,
        "meta_element_set_no": 999,
        "meta_rev_at_epoch": 508,
        "meta_bstar": 0.0014559512,
        "meta_mean_motion_dot": 0.00090604,
        "meta_mean_motion_ddot": 0,
        "tle_line1": "1 66845U 25280AA  25360.58205987  .00090604  00000+0  14560-2 0  9992",
        "tle_line2": "2 66845  70.0010 160.4409 0003710 273.8275  86.2488 15.52570948  5083"
      },
      "geometry": {
        "type": "Point",
        "coordinates": [
          163.97116729054102,
          11.01462238311054
        ]
      }
    },
    {
      "type": "Feature",
      "properties": {
        "norad_id": 66846,
        "name": "STARLINK-36055",
        "group": "last-30-days",
        "lat": 7.400781959339021,
        "lon": 162.62324202370795,
        "alt_km": 410.9937602423106,
        "timestamp": "2025-12-26T18:39:30.998024+00:00",
        "meta_object_name": "STARLINK-36055",
        "meta_object_id": "2025-280AB",
        "meta_epoch": "2025-12-25T17:53:01.855968",
        "meta_mean_motion": 15.52504965,
        "meta_eccentricity": 0.00033929,
        "meta_inclination": 70.001,
        "meta_ra_of_asc_node": 162.7379,
        "meta_arg_of_pericenter": 270.6917,
        "meta_mean_anomaly": 89.3881,
        "meta_ephemeris_type": 0,
        "meta_classification_type": "U",
        "meta_norad_cat_id": 66846,
        "meta_element_set_no": 999,
        "meta_rev_at_epoch": 495,
        "meta_bstar": 0.00066927244,
        "meta_mean_motion_dot": 0.000412,
        "meta_mean_motion_ddot": 0,
        "tle_line1": "1 66846U 25280AB  25359.74516037  .00041200  00000+0  66927-3 0  9993",
        "tle_line2": "2 66846  70.0010 162.7379 0003392 270.6917  89.3881 15.52504965  4951"
      },
      "geometry": {
        "type": "Point",
        "coordinates": [
          162.62324202370795,
          7.400781959339021
        ]
      }
    },
    {
      "type": "Feature",
      "properties": {
        "norad_id": 66847,
        "name": "STARLINK-36061",
        "group": "last-30-days",
        "lat": 9.182617184861705,
        "lon": 163.28342656624773,
        "alt_km": 410.5977278081691,
        "timestamp": "2025-12-26T18:39:30.998034+00:00",
        "meta_object_name": "STARLINK-36061",
        "meta_object_id": "2025-280AC",
        "meta_epoch": "2025-12-26T13:58:39.905184",
        "meta_mean_motion": 15.52548932,
        "meta_eccentricity": 0.00033712,
        "meta_inclination": 70.0009,
        "meta_ra_of_asc_node": 160.4421,
        "meta_arg_of_pericenter": 275.4132,
        "meta_mean_anomaly": 84.667,
        "meta_ephemeris_type": 0,
        "meta_classification_type": "U",
        "meta_norad_cat_id": 66847,
        "meta_element_set_no": 999,
        "meta_rev_at_epoch": 508,
        "meta_bstar": 0.0012457285,
        "meta_mean_motion_dot": 0.00077303,
        "meta_mean_motion_ddot": 0,
        "tle_line1": "1 66847U 25280AC  25360.58240631  .00077303  00000+0  12457-2 0  9993",
        "tle_line2": "2 66847  70.0009 160.4421 0003371 275.4132  84.6670 15.52548932  5083"
      },
      "geometry": {
        "type": "Point",
        "coordinates": [
          163.28342656624773,
          9.182617184861705
        ]
      }
    },
    {
      "type": "Feature",
      "properties": {
        "norad_id": 66848,
        "name": "STARLINK-36091",
        "group": "last-30-days",
        "lat": 18.912610918590538,
        "lon": -164.00199046368772,
        "alt_km": 412.39586447724287,
        "timestamp": "2025-12-26T18:39:30.998044+00:00",
        "meta_object_name": "STARLINK-36091",
        "meta_object_id": "2025-281A",
        "meta_epoch": "2025-12-26T14:00:04.000032",
        "meta_mean_motion": 15.50564155,
        "meta_eccentricity": 0.00011152,
        "meta_inclination": 43.0004,
        "meta_ra_of_asc_node": 38.7057,
        "meta_arg_of_pericenter": 266.6114,
        "meta_mean_anomaly": 240.3749,
        "meta_ephemeris_type": 0,
        "meta_classification_type": "U",
        "meta_norad_cat_id": 66848,
        "meta_element_set_no": 999,
        "meta_rev_at_epoch": 361,
        "meta_bstar": 0.00041437084,
        "meta_mean_motion_dot": 0.00024029,
        "meta_mean_motion_ddot": 0,
        "tle_line1": "1 66848U 25281A   25360.58337963  .00024029  00000+0  41437-3 0  9998",
        "tle_line2": "2 66848  43.0004  38.7057 0001115 266.6114 240.3749 15.50564155  3615"
      },
      "geometry": {
        "type": "Point",
        "coordinates": [
          -164.00199046368772,
          18.912610918590538
        ]
      }
    }
  ]
}